[{"OBJECT_NAME":"OBJECT E","OBJECT_ID":"2024-105E","EPOCH":"2026-03-10T00:03:44.143200","MEAN_MOTION":15.19028023,"ECCENTRICITY":0.00116899,"INCLINATION":97.5872,"RA_OF_ASC_NODE":85.441,"ARG_OF_PERICENTER":201.8034,"MEAN_ANOMALY":158.2704,"EPHEMERIS_TYPE":0,"CLASSIFICATION_TYPE":"U","NORAD_CAT_ID":59921,"ELEMENT_SET_NO":999,"REV_AT_EPOCH":9809,"BSTAR":0.00030074401,"MEAN_MOTION_DOT":6.239e-5,"MEAN_MOTION_DDOT":0},{"OBJECT_NAME":"IRIDIUM 45","OBJECT_ID":"1997-082A","EPOCH":"2026-03-09T19:43:04.689120","MEAN_MOTION":15.36676082,"ECCENTRICITY":0.00899413,"INCLINATION":86.3479,"RA_OF_ASC_NODE":277.5722,"ARG_OF_PERICENTER":47.6509,"MEAN_ANOMALY":313.2314,"EPHEMERIS_TYPE":0,"CLASSIFICATION_TYPE":"U","NORAD_CAT_ID":25104,"ELEMENT_SET_NO":999,"REV_AT_EPOCH":49262,"BSTAR":0.00064625537,"MEAN_MOTION_DOT":0.00026618,"MEAN_MOTION_DDOT":0}]
